0 MTSAT 1R
1 28622U 05006A   13282.50408780 -.00000294  00000-0  10000-3 0  9528
2 28622 000.0428 346.2076 0001392 357.6878 355.9038 01.00269920 31548
0 MTSAT 1R
1 28622U 05006A   13283.51500929 -.00000297  00000-0  10000-3 0  9532
2 28622 000.0406 349.5187 0001325 001.4717 353.7381 01.00270324 31553
0 MTSAT 1R
1 28622U 05006A   13283.68088310  .00000000  00000-0  10000-3 0  9536
2 28622 000.0042 324.5087 0000744 331.2725 108.7982 01.00265379 30972
0 MTSAT 1R
1 28622U 05006A   13286.43568328 -.00000305  00000-0  10000-3 0  9555
2 28622 000.0354 352.5638 0001246 345.5300 340.9569 01.00271018 31582
0 MTSAT 1R
1 28622U 05006A   13287.77840990 -.00000306  00000-0  10000-3 0  9563
2 28622 000.0392 002.0865 0002234 304.0682 137.5854 01.00270706 31607
0 MTSAT 1R
1 28622U 05006A   13289.48961301 -.00000304  00000-0  10000-3 0  9572
2 28622 000.0424 013.9340 0001712 290.1651 037.3667 01.00271006 31617
0 MTSAT 1R
1 28622U 05006A   13290.18811395  .00000000  00000-0  10000-3 0  9570
2 28622 000.0068 322.1726 0001882 353.1794 278.1807 01.00263333 31031
0 MTSAT 1R
1 28622U 05006A   13290.68898123 -.00000301  00000-0  10000-3 0  9585
2 28622 000.0408 014.7364 0001748 294.8866 104.8133 01.00272496 31636
0 MTSAT 1R
1 28622U 05006A   13293.82827167 -.00000295  00000-0  10000-3 0  9597
2 28622 000.0438 013.8171 0001379 312.5975 141.2559 01.00270669 31664
0 MTSAT 1R
1 28622U 05006A   13294.67653131 -.00000294  00000-0  10000-3 0  9600
2 28622 000.0452 011.2930 0004252 313.4997 089.0666 01.00271313 31678
0 MTSAT 1R
1 28622U 05006A   13295.68484993 -.00000293  00000-0  10000-3 0  9610
2 28622 000.0471 015.8381 0004274 310.1540 091.8570 01.00271472 31683
